[{"OBJECT_NAME":"ONEWEB-0115","OBJECT_ID":"2021-025A","EPOCH":"2024-06-12T21:35:23.781984","MEAN_MOTION":13.13470261,"ECCENTRICITY":0.0002181,"INCLINATION":87.8922,"RA_OF_ASC_NODE":106.3937,"ARG_OF_PERICENTER":84.0605,"MEAN_ANOMALY":276.0773,"EPHEMERIS_TYPE":0,"CLASSIFICATION_TYPE":"U","NORAD_CAT_ID":48042,"ELEMENT_SET_NO":999,"REV_AT_EPOCH":15720,"BSTAR":0.00085806,"MEAN_MOTION_DOT":3.26e-6,"MEAN_MOTION_DDOT":0},{"OBJECT_NAME":"ONEWEB-0152","OBJECT_ID":"2021-025B","EPOCH":"2024-06-12T21:53:40.911648","MEAN_MOTION":13.13468949,"ECCENTRICITY":0.0002135,"INCLINATION":87.8927,"RA_OF_ASC_NODE":106.3885,"ARG_OF_PERICENTER":82.3919,"MEAN_ANOMALY":277.7452,"EPHEMERIS_TYPE":0,"CLASSIFICATION_TYPE":"U","NORAD_CAT_ID":48043,"ELEMENT_SET_NO":999,"REV_AT_EPOCH":15716,"BSTAR":0.00071574,"MEAN_MOTION_DOT":2.74e-6,"MEAN_MOTION_DDOT":0},{"OBJECT_NAME":"ONEWEB-0153","OBJECT_ID":"2021-025C","EPOCH":"2024-06-12T21:21:40.723488","MEAN_MOTION":13.13470938,"ECCENTRICITY":0.000203,"INCLINATION":87.8929,"RA_OF_ASC_NODE":106.3806,"ARG_OF_PERICENTER":78.3084,"MEAN_ANOMALY":281.8273,"EPHEMERIS_TYPE":0,"CLASSIFICATION_TYPE":"U","NORAD_CAT_ID":48044,"ELEMENT_SET_NO":999,"REV_AT_EPOCH":15715,"BSTAR":0.00045419,"MEAN_MOTION_DOT":1.79e-6,"MEAN_MOTION_DDOT":0},{"OBJECT_NAME":"ONEWEB-0154","OBJECT_ID":"2021-025D","EPOCH":"2024-06-12T21:17:06.486432","MEAN_MOTION":13.13470716,"ECCENTRICITY":0.0002116,"INCLINATION":87.8925,"RA_OF_ASC_NODE":106.3928,"ARG_OF_PERICENTER":79.6156,"MEAN_ANOMALY":280.5212,"EPHEMERIS_TYPE":0,"CLASSIFICATION_TYPE":"U","NORAD_CAT_ID":48045,"ELEMENT_SET_NO":999,"REV_AT_EPOCH":15711,"BSTAR":0.00015125,"MEAN_MOTION_DOT":6.8e-7,"MEAN_MOTION_DDOT":0},{"OBJECT_NAME":"ONEWEB-0116","OBJECT_ID":"2021-025E","EPOCH":"2024-06-12T20:26:49.948800","MEAN_MOTION":13.13469457,"ECCENTRICITY":0.0002185,"INCLINATION":87.8928,"RA_OF_ASC_NODE":106.3685,"ARG_OF_PERICENTER":85.2033,"MEAN_ANOMALY":274.9345,"EPHEMERIS_TYPE":0,"CLASSIFICATION_TYPE":"U","NORAD_CAT_ID":48046,"ELEMENT_SET_NO":999,"REV_AT_EPOCH":15725,"BSTAR":-0.00018901,"MEAN_MOTION_DOT":-5.6e-7,"MEAN_MOTION_DDOT":0},{"OBJECT_NAME":"ONEWEB-0150","OBJECT_ID":"2021-025F","EPOCH":"2024-06-12T21:39:57.949056","MEAN_MOTION":13.13469806,"ECCENTRICITY":0.0001943,"INCLINATION":87.8922,"RA_OF_ASC_NODE":106.3777,"ARG_OF_PERICENTER":78.7052,"MEAN_ANOMALY":281.4296,"EPHEMERIS_TYPE":0,"CLASSIFICATION_TYPE":"U","NORAD_CAT_ID":48047,"ELEMENT_SET_NO":999,"REV_AT_EPOCH":15715,"BSTAR":0.00084598,"MEAN_MOTION_DOT":3.22e-6,"MEAN_MOTION_DDOT":0},{"OBJECT_NAME":"ONEWEB-0107","OBJECT_ID":"2021-025G","EPOCH":"2024-06-12T21:42:14.493888","MEAN_MOTION":13.13469772,"ECCENTRICITY":0.0001799,"INCLINATION":87.8922,"RA_OF_ASC_NODE":106.3751,"ARG_OF_PERICENTER":74.7286,"MEAN_ANOMALY":285.4042,"EPHEMERIS_TYPE":0,"CLASSIFICATION_TYPE":"U","NORAD_CAT_ID":48048,"ELEMENT_SET_NO":999,"REV_AT_EPOCH":15713,"BSTAR":0.0010477,"MEAN_MOTION_DOT":3.95e-6,"MEAN_MOTION_DDOT":0},{"OBJECT_NAME":"ONEWEB-0101","OBJECT_ID":"2021-025H","EPOCH":"2024-06-12T20:49:39.886464","MEAN_MOTION":13.13468801,"ECCENTRICITY":0.0002141,"INCLINATION":87.8929,"RA_OF_ASC_NODE":106.3985,"ARG_OF_PERICENTER":78.156,"MEAN_ANOMALY":281.9809,"EPHEMERIS_TYPE":0,"CLASSIFICATION_TYPE":"U","NORAD_CAT_ID":48049,"ELEMENT_SET_NO":999,"REV_AT_EPOCH":15710,"BSTAR":-0.00083551,"MEAN_MOTION_DOT":-2.92e-6,"MEAN_MOTION_DDOT":0},{"OBJECT_NAME":"ONEWEB-0113","OBJECT_ID":"2021-025J","EPOCH":"2024-06-12T22:07:22.787328","MEAN_MOTION":13.13470003,"ECCENTRICITY":0.0002177,"INCLINATION":87.8928,"RA_OF_ASC_NODE":106.3698,"ARG_OF_PERICENTER":83.7571,"MEAN_ANOMALY":276.3806,"EPHEMERIS_TYPE":0,"CLASSIFICATION_TYPE":"U","NORAD_CAT_ID":48050,"ELEMENT_SET_NO":999,"REV_AT_EPOCH":15719,"BSTAR":0.00028439,"MEAN_MOTION_DOT":1.17e-6,"MEAN_MOTION_DDOT":0},{"OBJECT_NAME":"ONEWEB-0112","OBJECT_ID":"2021-025K","EPOCH":"2024-06-12T21:49:06.192480","MEAN_MOTION":13.13469876,"ECCENTRICITY":0.0001973,"INCLINATION":87.8923,"RA_OF_ASC_NODE":106.372,"ARG_OF_PERICENTER":81.5714,"MEAN_ANOMALY":278.5639,"EPHEMERIS_TYPE":0,"CLASSIFICATION_TYPE":"U","NORAD_CAT_ID":48051,"ELEMENT_SET_NO":999,"REV_AT_EPOCH":15720,"BSTAR":0.00068158,"MEAN_MOTION_DOT":2.62e-6,"MEAN_MOTION_DDOT":0},{"OBJECT_NAME":"ONEWEB-0156","OBJECT_ID":"2021-025L","EPOCH":"2024-06-12T22:02:48.977088","MEAN_MOTION":13.13470641,"ECCENTRICITY":0.0001996,"INCLINATION":87.8928,"RA_OF_ASC_NODE":106.3673,"ARG_OF_PERICENTER":80.4967,"MEAN_ANOMALY":279.6388,"EPHEMERIS_TYPE":0,"CLASSIFICATION_TYPE":"U","NORAD_CAT_ID":48052,"ELEMENT_SET_NO":999,"REV_AT_EPOCH":15718,"BSTAR":0.00041067,"MEAN_MOTION_DOT":1.63e-6,"MEAN_MOTION_DDOT":0},{"OBJECT_NAME":"ONEWEB-0161","OBJECT_ID":"2021-025M","EPOCH":"2024-06-12T21:23:58.153920","MEAN_MOTION":13.13470628,"ECCENTRICITY":0.0002024,"INCLINATION":87.8928,"RA_OF_ASC_NODE":106.3796,"ARG_OF_PERICENTER":75.2246,"MEAN_ANOMALY":284.9107,"EPHEMERIS_TYPE":0,"CLASSIFICATION_TYPE":"U","NORAD_CAT_ID":48053,"ELEMENT_SET_NO":999,"REV_AT_EPOCH":15711,"BSTAR":0.00033631,"MEAN_MOTION_DOT":1.36e-6,"MEAN_MOTION_DDOT":0},{"OBJECT_NAME":"ONEWEB-0158","OBJECT_ID":"2021-025N","EPOCH":"2024-06-12T20:29:07.476864","MEAN_MOTION":13.13468064,"ECCENTRICITY":0.0001805,"INCLINATION":87.8923,"RA_OF_ASC_NODE":106.3778,"ARG_OF_PERICENTER":82.2259,"MEAN_ANOMALY":277.9075,"EPHEMERIS_TYPE":0,"CLASSIFICATION_TYPE":"U","NORAD_CAT_ID":48054,"ELEMENT_SET_NO":999,"REV_AT_EPOCH":15723,"BSTAR":-0.00052439,"MEAN_MOTION_DOT":-1.79e-6,"MEAN_MOTION_DDOT":0}]
