ONEWEB-0115             
1 48042U 21025A   24164.89958081  .00000326  00000+0  85806-3 0  9993
2 48042  87.8922 106.3937 0002181  84.0605 276.0773 13.13470261157205
ONEWEB-0152             
1 48043U 21025B   24164.91227907  .00000274  00000+0  71574-3 0  9992
2 48043  87.8927 106.3885 0002135  82.3919 277.7452 13.13468949157168
ONEWEB-0153             
1 48044U 21025C   24164.89005467  .00000179  00000+0  45419-3 0  9998
2 48044  87.8929 106.3806 0002030  78.3084 281.8273 13.13470938157153
ONEWEB-0154             
1 48045U 21025D   24164.88688063  .00000068  00000+0  15125-3 0  9995
2 48045  87.8925 106.3928 0002116  79.6156 280.5212 13.13470716157113
ONEWEB-0116             
1 48046U 21025E   24164.85196700 -.00000056  00000+0 -18901-3 0  9999
2 48046  87.8928 106.3685 0002185  85.2033 274.9345 13.13469457157259
ONEWEB-0150             
1 48047U 21025F   24164.90275404  .00000322  00000+0  84598-3 0  9994
2 48047  87.8922 106.3777 0001943  78.7052 281.4296 13.13469806157150
ONEWEB-0107             
1 48048U 21025G   24164.90433442  .00000395  00000+0  10477-2 0  9997
2 48048  87.8922 106.3751 0001799  74.7286 285.4042 13.13469772157130
ONEWEB-0101             
1 48049U 21025H   24164.86782276 -.00000292  00000+0 -83551-3 0  9997
2 48049  87.8929 106.3985 0002141  78.1560 281.9809 13.13468801157103
ONEWEB-0113             
1 48050U 21025J   24164.92179152  .00000117  00000+0  28439-3 0  9997
2 48050  87.8928 106.3698 0002177  83.7571 276.3806 13.13470003157199
ONEWEB-0112             
1 48051U 21025K   24164.90909945  .00000262  00000+0  68158-3 0  9990
2 48051  87.8923 106.3720 0001973  81.5714 278.5639 13.13469876157205
ONEWEB-0156             
1 48052U 21025L   24164.91862242  .00000163  00000+0  41067-3 0  9990
2 48052  87.8928 106.3673 0001996  80.4967 279.6388 13.13470641157183
ONEWEB-0161             
1 48053U 21025M   24164.89164530  .00000136  00000+0  33631-3 0  9991
2 48053  87.8928 106.3796 0002024  75.2246 284.9107 13.13470628157111
ONEWEB-0158             
1 48054U 21025N   24164.85355876 -.00000179  00000+0 -52439-3 0  9999
2 48054  87.8923 106.3778 0001805  82.2259 277.9075 13.13468064157235
